,name,number,numberAddress,roadAddress,lat,lon,thumbnail,naverURL,lastIndex
0,까치구멍집,054-821-1056,경상북도 안동시 상아동 513-1번지,경상북도 안동시 석주로 203 (상아동),36.57769495,128.75525,jezvytc-cHXah_0ovKVg3HMH10tNs4ZbqbB0uUvo,https://pcmap.place.naver.com/restaurant/20066367/review/visitor#,0
1,북경관,243-3001,강원도 춘천시 근화동 710-37번지,강원도 춘천시 공지로 426  (근화동),37.87365974,127.7174203,2F20200317_261%2F1584448061198FJIAV_JPEG,https://pcmap.place.naver.com/restaurant/16484506/review/visitor#,
2,라이라이,256-4282,강원도 춘천시 동면 만천리 329-13번지,강원도 춘천시 동면 순환대로 1154-42,37.8868188,127.7743287,atic.net%2F20160316_78%2F1458105103584oq,https://pcmap.place.naver.com/restaurant/37663312/review/visitor#,
3,쟈스민,241-5453,강원도 춘천시 퇴계동 1159-4번지,강원도 춘천시 우묵길74번길 14 (퇴계동),37.86663574,127.7215641,ic.net%2F20170517_187%2F1494996538129zNU,https://pcmap.place.naver.com/restaurant/36988941/review/visitor#,
4,"춘천명물닭갈비,막국수",255-2067,강원도 춘천시 삼천동 37-23,강원도 춘천시 옛경춘로 807 (삼천동),37.86976805,127.7038305,90719_213%2F1563518247790gEANW_JPEG%2FQp,https://pcmap.place.naver.com/restaurant/18205851/review/visitor#,
5,회영루,254-3841,강원도 춘천시 소양로3가 180-5번지,강원도 춘천시 금강로 38 (소양로3가),37.8808812,127.7234376,90120_246%2F1547973364598HEpPu_JPEG%2Fk7,https://pcmap.place.naver.com/restaurant/15040932/review/visitor#,
6,산토리니,242-3010,강원도 춘천시 동면 장학리 144-16번지,강원도 춘천시 동면 순환대로 1154-97,37.89143094,127.773397,7%2F1666856472643pI4ei_JPEG%2F481AA5DC-C,https://pcmap.place.naver.com/restaurant/37592131/review/visitor#,
7,뉴가야관광호텔,,"충청남도 예산군 덕산면 신평리 163-1번지 163-3, 191-9",,36.69340325,126.6596437,t%2F20221223_108%2F1671758500129lmK3n_PN,https://pcmap.place.naver.com/restaurant/11658823/review/visitor#,
8,덕화원,859-1302,경기도 양주시 덕정동 350-84번지,경기도 양주시 덕정길 4  (덕정동),37.84401136,127.0596464,atic.net%2F20220402_263%2F1648901997382N,https://pcmap.place.naver.com/restaurant/18076590/review/visitor#,
9,아웃백스테이크하우스 금오점,031-853-7601,경기도 의정부시 금오동 474-5번지,"경기도 의정부시 청사로48번길 25, 2,3층 (금오동, 아웃백스테이크하우스금오점)",37.7531339,127.0685102,7%25B9%25C0%25CC%25BD%25BA_%25C4%25DA%25,https://pcmap.place.naver.com/restaurant/11849322/review/visitor#,
10,중화요리 일품,885-0101,경기도 여주시 창동 68-201번지,,inf,inf,K5vWbBHnznTEAtjRujOn67Kwg.JPEG.lemon9234,https://pcmap.place.naver.com/restaurant/13477593/review/visitor#,
11,(주)엑스티라이프스타일즈 여주 얌차이나,880-1630,경기도 여주시 상거동 산 15-1번지 여주프리미엄아울렛 2332호,,inf,inf,,0,
12,메이찬,031-826-5550,경기도 의정부시 호원동 50-2,"경기도 의정부시 외미로 100, 2층 205호 (호원동, 회룡타운)",37.72403026,127.0435308,StEgg.A544c2eJ9m6kxlAJmALaosTaObHTPRQTNN,https://pcmap.place.naver.com/restaurant/20597116/review/visitor#,
13,락궁,,경기도 의정부시 호원동 119-35번지,경기도 의정부시 호암로 85-8 (호원동),37.70827914,127.0443587,tic.net%2F20150831_40%2F1440994992036eMR,https://pcmap.place.naver.com/restaurant/13151040/review/visitor#,
14,팔가,846-5742,경기도 의정부시 의정부동 201-11번지 (1층),경기도 의정부시 평화로 564 (의정부동),37.74223919,127.0442644,91127_172%2F1574844763965Gape5_JPEG%2Fe9,https://pcmap.place.naver.com/restaurant/11626040/review/visitor#,
15,지동관,846-2047,경기도 의정부시 의정부동 196-14번지,경기도 의정부시 호국로1298번길 78  (의정부동),37.73996214,127.045367,2F20181114_250%2F15421742554973DHNG_JPEG,https://pcmap.place.naver.com/restaurant/11841162/review/visitor#,
16,주)63시티방송회관클럽백리향,,서울특별시 양천구 목동 923-1번지 방송회관,,37.52660021,126.8680838,,0,
17,(주)63시티방송회관클럽백리향,,서울특별시 양천구 목동 923-5번지,서울특별시 양천구 목동동로 233  (목동),37.52695884,126.8686153,,0,
18,미스차이나,,서울특별시 양천구 신월동 427-2번지,서울특별시 양천구 월정로 65 (신월동),37.52536184,126.8380497,2F20191205_251%2F1575535357472qXPW8_JPEG,https://pcmap.place.naver.com/restaurant/1086630562/review/visitor#,
19,대륙짬뽕,031-867-1007,경기도 양주시 은현면 선암리 522-2번지,경기도 양주시 은현면 은현로 7,37.87015675,127.0183923,91104_223%2F15728451359897l3j6_JPEG%2FdF,https://pcmap.place.naver.com/restaurant/238613787/review/visitor#,
20,샹하이문,033-744-2114,강원도 원주시 단계동 858-2번지,강원도 원주시 천사로 34 (단계동),37.34772604,127.9266661,2F20181225_261%2F1545748399682HHB1x_JPEG,https://pcmap.place.naver.com/restaurant/31395429/review/visitor#,
21,산동원,033-742-5188,강원도 원주시 학성동 206-8번지,강원도 원주시 중앙로 171 (학성동),37.35244491,127.9452875,90318_123%2F1552903847773IC9xT_JPEG%2FO4,https://pcmap.place.naver.com/restaurant/15206970/review/visitor#,
22,오크밸리클럽하우스,033)730-3500,강원도 원주시 지정면 월송리 산 2-2번지,강원도 원주시 지정면 신평석화로 236,inf,inf,%2F20210222_43%2F1613962123631eYXLx_JPEG,https://pcmap.place.naver.com/restaurant/1822668395/review/visitor#,
23,래래반점,033)742-9604,강원도 원주시 우산동 231-11번지,강원도 원주시 우산초교길 19-8 (우산동),37.36678209,127.935572,2F20200812_168%2F1597214996534GBqWv_JPEG,https://pcmap.place.naver.com/restaurant/15228654/review/visitor#,
24,중앙동 래래반점,033-742-2350,강원도 원주시 중앙동 120번지,강원도 원주시 중앙로 85 (중앙동),37.34862948,127.9484015,,0,
25,아웃백스테이크하우스,033-766-6941,강원도 원주시 단구동 1511-2번지 651 스타빌딩 2층,강원도 원주시 서원대로 396 (단구동),37.33084947,127.9458377,,0,
26,연강춘,033-742-3163,강원도 원주시 학성동 207-18번지,강원도 원주시 원일로 148-7 (학성동),37.35221294,127.9446999,91230_260%2F1577638011975qp7jL_JPEG%2Fqa,0,
27,옛날짜장,063-644-2929,전라북도 임실군 임실읍 두곡리 26-6번지,전라북도 임실군 임실읍 춘향로 2933,35.63228323,127.2861019,,0,
28,전주샹그릴라컨트리클럽,636431000,전라북도 임실군 신덕면 지장리 산 7번지,전라북도 임실군 신덕면 수지로 559-90,35.70619234,127.1991486,inf.pstatic.net%2F20150831_78%2F14410284,https://pcmap.place.naver.com/restaurant/13374614/review/visitor#,
29,대유식당,738-0500,제주특별자치도 서귀포시 상예동 144번지,제주특별자치도 서귀포시 상예로 381  (상예동),33.27766738,126.392379,9m_AIdqhld1B3XIU4P1n-NSK6_tu8lEuw0g.JPEG,https://pcmap.place.naver.com/restaurant/38615032/review/visitor#,
30,힐하우스,,경기도 양평군 강하면 전수리 17-3번지,경기도 양평군 강하면 강남로 489,37.50560363,127.4371513,2F20200713_116%2F1594630886903iDWX7_JPEG,https://pcmap.place.naver.com/restaurant/11556918/review/visitor#,
31,스완레스토랑,,경기도 양평군 강하면 전수리 17-3번지,경기도 양평군 강하면 강남로 489,37.50560363,127.4371513,4ioAoW_JPEG%2F%25C0%25BD%25BC%25BA%25B8%,https://pcmap.place.naver.com/restaurant/17765694/review/visitor#,
32,아미고,,경기도 양평군 강하면 전수리 16-3번지,경기도 양평군 강하면 강남로 489,37.50552891,127.4374813,tic.net%2F20160525_240%2F1464133490090QF,https://pcmap.place.naver.com/restaurant/19396011/review/visitor#,
33,로마광광나이트,637-6334,경기도 이천시 부발읍 아미리 726-29번지,,37.25209864,127.4870275,,0,
34,명신반점,,경기도 연천군 전곡읍 전곡리 305-4번지,경기도 연천군 전곡읍 전곡역로 61,38.02415143,127.0668473,2hqlQyvdSG2m7_c2i80Ib3Ix-Eg.JPEG.ymmh216,https://pcmap.place.naver.com/restaurant/1182973891/review/visitor#,
35,갑천하,02-953-4652,서울특별시 성북구 안암동5가 104-221,서울특별시 성북구 인촌로26길 51 (안암동5가),37.58394666,127.0273274,f.pstatic.net%2F20150901_225%2F144104666,https://pcmap.place.naver.com/restaurant/11820389/review/visitor#,
36,청도,02-928-3344,서울특별시 성북구 동소문동4가 230,서울특별시 성북구 동소문로13가길 16 (동소문동4가),37.59194116,127.0091565,,0,
37,미스터왕,02-929-7050,서울특별시 성북구 안암동5가 86-185번지,서울특별시 성북구 인촌로28길 17  (안암동5가),37.58570163,127.0280083,0190711_92%2F1562823973011TvX29_JPEG%2Fq,https://pcmap.place.naver.com/restaurant/1224473116/review/visitor#,
38,화원,02-923-3888,서울특별시 성북구 안암동5가 101-66,서울특별시 성북구 개운사길 21-3 (안암동5가),37.58730242,127.0259978,atic.net%2F20220613_268%2F1655103770297K,https://pcmap.place.naver.com/restaurant/12788192/review/visitor#,
39,고려성,02-923-9577,서울특별시 성북구 안암동5가 134-35,서울특별시 성북구 안암로 69-1 (안암동5가),37.58265977,127.0259501,t%2F20220620_48%2F1655688502743fXdfl_JPE,https://pcmap.place.naver.com/restaurant/18240900/review/visitor#,
40,베나레스,02-921-9982,서울특별시 성북구 안암동5가 102-59,서울특별시 성북구 인촌로24길 27 (안암동5가),37.5849321,127.0266584,PEG%2F%25B4%25EB%25C7%25A5%25B8%25DE%25B,https://pcmap.place.naver.com/restaurant/20510788/review/visitor#,
41,곰의집,02-762-1448,서울특별시 성북구 성북동 산 5-1,서울특별시 성북구 북악산로 637 (성북동),37.59678519,127.0024284,,0,
42,새골목집,749-3336,서울특별시 용산구 이태원동 116-15번지 지상1층,"서울특별시 용산구 이태원로27가길 50  (이태원동,지상1층)",37.53510212,126.9896255,nMdtPFuqKNv-ldLkwGJz3MXZhCdgS8wEBn4gg.JP,https://pcmap.place.naver.com/restaurant/1020539163/review/visitor#,
43,쿠아타이,2012-0567,서울특별시 용산구 한강로3가 40-999번지 현대아이파크몰 5층 514,,37.52955743,126.9612665,210809_87%2F1628507266285ETrIh_JPEG%2F77,https://pcmap.place.naver.com/restaurant/1916378805/review/visitor#,
44,티원(T-Won),02-3270-7533,서울특별시 용산구 동자동 43-205번지 3층 301호,,37.55239505,126.9681783,EG%2F%25BF%25AC%25BC%25BC%25B4%25EB%25C1,https://pcmap.place.naver.com/restaurant/11711429/review/visitor#,
45,니시키,749-0446,서울특별시 용산구 한남동 683-122번지 지상1층,"서울특별시 용산구 이태원로 232  (한남동,지상1층)",37.53561337,126.9965825,JPEG%2F%25B4%25D9%25BF%25EE%25B7%25CE%25,https://pcmap.place.naver.com/restaurant/1294321261/review/visitor#,
46,판쵸스,,서울특별시 용산구 이태원동 127-3번지,서울특별시 용산구 이태원로 190  (이태원동),37.53433921,126.99226,,0,
47,취룡,,서울특별시 용산구 한남동 653-1번지 지상1층,"서울특별시 용산구 대사관로 52  (한남동,지상1층)",37.53328285,127.0009641,%2F20191202_44%2F1575282849208aDFm1_JPEG,https://pcmap.place.naver.com/restaurant/19866377/review/visitor#,
48,르어 이촌점,,서울특별시 용산구 이촌동 300-23번지,서울특별시 용산구 이촌로 248  (이촌동),37.51933003,126.9721365,,0,
49,(주)테크데이타 원효로지점 포이삽사,7020424,서울특별시 용산구 원효로4가 137번지,서울특별시 용산구 효창원로 4  (원효로4가),37.53372671,126.9477071,,0,
50,경풍루,2012-0696,서울특별시 용산구 한강로3가 40-999번지 현대아이몰 6층,,37.52955743,126.9612665,,0,
51,빌라소르티노,553-9000,서울특별시 용산구 이태원동 124-12번지 지하1층,"서울특별시 용산구 이태원로27나길 36  (이태원동,지하1층)",37.53508118,126.9937454,,0,
52,아그라,,서울특별시 용산구 이태원동 172-2번지 덕흥빌딩 지하1층,"서울특별시 용산구 이태원로 153  (이태원동,덕흥빌딩 지하1층)",37.53462338,126.9881014,,0,
53,웨스턴차이나,795-6751,서울특별시 용산구 한남동 263-10번지,서울특별시 용산구 독서당로 73  (한남동),37.53421038,127.0057462,50831_275%2F1441020182991Y2zJV_JPEG%2FSU,https://pcmap.place.naver.com/restaurant/19867372/review/visitor#,
54,두바이,798-9277,서울특별시 용산구 이태원동 127-2번지 지상2층,"서울특별시 용산구 이태원로 192  (이태원동,지상2층)",37.53435653,126.9924706,2F20191127_116%2F1574810481947aTu19_JPEG,https://pcmap.place.naver.com/restaurant/19867570/review/visitor#,
55,와즈완,798-1253,서울특별시 용산구 한남동 732-151번지,서울특별시 용산구 우사단로10길 45  (한남동),37.53295234,126.9952,0190520_87%2F1558329334737FD5e1_JPEG%2F-,https://pcmap.place.naver.com/restaurant/18326509/review/visitor#,
56,마오,793-8845,서울특별시 용산구 이태원동 228-6번지 지상4층,"서울특별시 용산구 회나무로 57  (이태원동,지상4층)",37.54039819,126.990016,%2F20200206_89%2F1580939586535euHhv_JPEG,https://pcmap.place.naver.com/restaurant/18176484/review/visitor#,
57,마이차이나,749-9287,서울특별시 용산구 이태원동 118-20번지 지상2층,"서울특별시 용산구 이태원로27가길 54  (이태원동,지상2층)",37.53499017,126.989378,0190503_57%2F1556873395119YdSqW_JPEG%2FR,https://pcmap.place.naver.com/restaurant/442133627/review/visitor#,
58,베를린,749-0903,서울특별시 용산구 이태원동 457-1번지 지하1층,"서울특별시 용산구 녹사평대로40길 48  (이태원동,지하1층)",37.53441738,126.9855191,5DF2022%25A3%25DF07%25A3%25DF14%25A3%25D,https://pcmap.place.naver.com/restaurant/38549799/review/visitor#,
59,모글인테내셔날(파키스탄),796-5501,서울특별시 용산구 후암동 340-5번지,서울특별시 용산구 두텁바위로60길 25  (후암동),37.55034581,126.9800022,,0,
60,이탈리아노(이태리식),580-8122,서울특별시 용산구 이태원동 534번지,서울특별시 용산구 녹사평대로 206  (이태원동),37.5360515,126.9844699,,0,
61,세종식당(한국전통식),796-4100,"서울특별시 용산구 한남동 762-162번지 1,2층",,inf,inf,,0,
62,남해숫불갈비(한국전통식),790-2322,서울특별시 용산구 한남동 722-16번지,,37.53775011,127.0021065,,0,
63,파타야,793-4888,서울특별시 용산구 이태원동 116-14번지,서울특별시 용산구 이태원로27가길 52  (이태원동),37.53513759,126.9894174,tic.net%2F20150831_97%2F1440998454203hlm,https://pcmap.place.naver.com/restaurant/13157997/review/visitor#,
64,챠크라,797-0752,서울특별시 용산구 한남동 28-9번지,서울특별시 용산구 독서당로 83  (한남동),37.53449759,127.0067996,f.pstatic.net%2F20150901_117%2F144105289,https://pcmap.place.naver.com/restaurant/11842923/review/visitor#,
65,(주) 타이가든,3461-1462,서울특별시 용산구 한남동 737-24번지 3층,"서울특별시 용산구 이태원로 223  (한남동,3층)",37.53546964,126.9956575,,0,
66,메르하바,794-3182,서울특별시 용산구 한남동 657-43번지 2층,"서울특별시 용산구 대사관로 45-1  (한남동,2층)",37.53367136,127.0003739,,0,
67,북경,795-2402,서울특별시 용산구 한강로3가 60번지,서울특별시 용산구 한강대로 52-1  (한강로3가),37.52541189,126.961789,static.net%2F20221031_283%2F166718418750,https://pcmap.place.naver.com/restaurant/33704700/review/visitor#,
68,현경한남점,796-6457,서울특별시 용산구 한남동 631-15번지,서울특별시 용산구 대사관로30길 11-6  (한남동),37.53252349,127.0029774,,0,
69,알리바바,790-7754,서울특별시 용산구 이태원동 124-9번지,서울특별시 용산구 이태원로 203  (이태원동),37.5348164,126.9936925,,0,
70,파챠이,792-0872,서울특별시 용산구 이촌동 300-16번지,서울특별시 용산구 이촌로88길 8  (이촌동),37.51822329,126.9748801,%2Fsuinikim_1394097530731dgQes_JPEG%2F13,https://pcmap.place.naver.com/restaurant/19877432/review/visitor#,
71,사이공그릴,7937784,서울특별시 용산구 이태원동 119-7번지,서울특별시 용산구 이태원로 173-7  (이태원동),37.5348805,126.9903397,,0,
72,사쿠라,790-0779,"서울특별시 용산구 한남동 78-2번지 외1필지 2,3층","서울특별시 용산구 대사관로 77  (한남동,외1필지 2,3층)",37.5333349,127.0038618,210706_92%2F1625570891605HkBD7_JPEG%2F0Z,https://pcmap.place.naver.com/restaurant/1738566808/review/visitor#,
73,마이타이,794-8090,서울특별시 용산구 이태원동 123-20번지,,37.53483298,126.991774,7%2F1646336627211OY8Re_JPEG%2FEA7DD697-1,https://pcmap.place.naver.com/restaurant/1885750246/review/visitor#,
74,쉐프마일리오스트리아,794-7024,서울특별시 용산구 이태원동 130-1번지 2층,"서울특별시 용산구 보광로 125  (이태원동,2층)",37.53385567,126.9910769,,0,
75,타지펠리스,749-0316,서울특별시 용산구 이태원동 130-2번지,,inf,inf,DzUXPMpE1GOlDofTXSe_x8g.JPEG.grazeyang%2,https://pcmap.place.naver.com/restaurant/19546004/review/visitor#,
76,솔티노,797-0488,서울특별시 용산구 한남동 736-11번지 2층,"서울특별시 용산구 이태원로 208  (한남동,2층)",37.53452165,126.9942255,,0,
77,비냐,553-9000,서울특별시 용산구 이태원동 118-20번지 1층,"서울특별시 용산구 이태원로27가길 54  (이태원동,1층)",37.53499017,126.989378,%2F20211010_29%2F1633838636956NuBLc_JPEG,https://pcmap.place.naver.com/restaurant/1811132491/review/visitor#,
78,카레타운,,서울특별시 용산구 이태원동 119-18번지 지상2층,"서울특별시 용산구 이태원로 169  (이태원동,지상2층)",37.53466971,126.9897734,54759934093VcI3z_JPEG%2F%25C1%25A6%25B8%,https://pcmap.place.naver.com/restaurant/1304355062/review/visitor#,
79,만리장성,759-6554,서울특별시 용산구 동자동 42-9번지,서울특별시 용산구 한강대로102길 3  (동자동),37.54995453,126.96942,,0,
80,한국아미고스(주),795-9711,서울특별시 용산구 이태원동 124-6번지 지상1층,"서울특별시 용산구 이태원로27길 6  (이태원동,지상1층)",37.5350159,126.9927002,,0,
81,오샬,02-6084-6527,서울특별시 성북구 안암동5가 146-5번지 3층,서울특별시 성북구 인촌로24길 6 (안암동5가),37.58596527,127.0262894,c.net%2F20160929_178%2F1475151012930AqaN,https://pcmap.place.naver.com/restaurant/13508231/review/visitor#,
82,싸루(SARU)인도&네팔푸드레스토랑,02-953-1916,서울특별시 성북구 안암동5가 103-39번지 2층,서울특별시 성북구 인촌로26길 42-3 (안암동5가),37.58424369,127.0268579,,0,
83,푸드카페앤그릴,02-795-7915,서울특별시 성북구 성북동 산 5-1,서울특별시 성북구 북악산로 637 (성북동),37.59678519,127.0024284,,0,
84,고매식,795-7915,서울특별시 용산구 한남동 312-5번지 지상2층,"서울특별시 용산구 유엔빌리지1길 2  (한남동,지상2층)",37.53294714,127.0070214,,0,
85,올라마리오,793-9003,서울특별시 용산구 한남동 736-8번지 지상2층,"서울특별시 용산구 이태원로 216  (한남동,지상2층)",37.53468189,126.9952525,,0,
86,인디아,712-1509,"서울특별시 용산구 남영동 89-5번지 지상1,2층","서울특별시 용산구 한강대로76길 5  (남영동,지상1,2층)",37.54161774,126.9705294,pstatic.net%2F20180723_205%2F15323287949,https://pcmap.place.naver.com/restaurant/37420517/review/visitor#,
87,꼬메돌,749-2827,서울특별시 용산구 이태원동 130-3번지 지상2층,"서울특별시 용산구 보광로59길 5  (이태원동,지상2층)",37.53386929,126.9908288,.pstatic.net%2F20150831_173%2F1440997671,https://pcmap.place.naver.com/restaurant/35395171/review/visitor#,
88,마러커쉬나이트,715-9441,서울특별시 용산구 한남동 736-15번지 지상2층,"서울특별시 용산구 이태원로 220  (한남동,지상2층)",37.53484068,126.9955744,ic.net%2F20150831_155%2F1440996945852lS5,https://pcmap.place.naver.com/restaurant/11893060/review/visitor#,
89,가사안토니오,794-8803,서울특별시 용산구 이태원동 124-6번지 2층,"서울특별시 용산구 이태원로27길 6  (이태원동,2층)",37.5350159,126.9927002,,0,
90,댈리달발,792-1448,서울특별시 용산구 이태원동 131-36번지 지상1층,"서울특별시 용산구 보광로60길 10  (이태원동,지상1층)",37.53387015,126.9918176,2F20190131_160%2F1548940745709cvAxW_JPEG,https://pcmap.place.naver.com/restaurant/37868216/review/visitor#,
91,왕타이,749-2746,서울특별시 용산구 이태원동 176-3번지 지상3층,,inf,inf,wa5856%2F%25BA%25CE%25B8%25AE%258A%25DA%,https://pcmap.place.naver.com/restaurant/35424911/review/visitor#,
92,파파스 차이나,031-877-8289,경기도 의정부시 장암동 135-41번지,"경기도 의정부시 장곡로 48, 2층 (장암동)",37.70881619,127.0492703,2F20210129_253%2F16119041941595zXmm_JPEG,https://pcmap.place.naver.com/restaurant/37853695/review/visitor#,
93,(주)푸드베네치아하남점,062-954-1005,광주광역시 광산구 우산동 1574-8,광주광역시 광산구 무진대로211번길 21-5 (우산동),35.16317614,126.8005948,,0,
94,동천홍,482-6267,대전광역시 서구 월평동 741번지 금강빌라 301호,"대전광역시 서구 월평로90번길 5,  301호 (월평동,금강빌라)",36.35542081,127.3644912,,0,
95,청해루,526-9295,대전광역시 서구 갈마동 343-42번지 1층,"대전광역시 서구 갈마중로7번길 10-3  (갈마동,1층)",36.34806553,127.367444,715_290%2F1657842589766d6BKa_JPEG%2FKaka,https://pcmap.place.naver.com/restaurant/1133130515/review/visitor#,
96,만다린,489-2060,대전광역시 서구 둔산동 1009번지 우정빌딩 2층,"대전광역시 서구 둔산로31번길 32  (둔산동,우정빌딩 2층)",36.35309453,127.3749082,%2F20171101_162%2F1509526909450QspVt_PNG,https://pcmap.place.naver.com/restaurant/32096312/review/visitor#,
97,천년의 정원,485-1796.7,"대전광역시 서구 만년동 322번지 1,2층","대전광역시 서구 만년로67번길 18-13  (만년동,1,2층)",36.36836563,127.378152,,0,
98,동방명주,486-3888,대전광역시 서구 탄방동 732번지 3층,"대전광역시 서구 문예로 15  (탄방동,3층)",36.34805024,127.3869468,%2F20210414_79%2F1618371841405OwgQA_JPEG,https://pcmap.place.naver.com/restaurant/1667151941/review/visitor#,
99,천안문,488-3150,대전광역시 서구 둔산동 1188번지,대전광역시 서구 둔산남로9번길 79  (둔산동),36.3507263,127.3773474,3%25E6%25B8%25C1-%25C3%25B5%25BE%25C8%25,https://pcmap.place.naver.com/restaurant/1077500462/review/visitor#,
100,오후청,471-3201,대전광역시 서구 둔산동 1270번지,대전광역시 서구 둔산로 71  (둔산동),36.35156863,127.3788836,nn9Yoe_2fG2UUqNpk01nTqy_6LhP3kf1yCMFgQrB,https://pcmap.place.naver.com/restaurant/1785786794/review/visitor#,
101,차이나공,486-6613,대전광역시 서구 만년동 376번지,대전광역시 서구 둔산대로117번길 18  (만년동),36.36572358,127.3796644,0200526_19%2F1590488132476RaS69_JPEG%2FU,https://pcmap.place.naver.com/restaurant/35032725/review/visitor#,
102,영일만회천국,488-8511,대전광역시 서구 월평동 1498번지,대전광역시 서구 계룡로 199  (월평동),36.35150114,127.3491272,,0,
103,젠클럽레스토랑,487-9200,대전광역시 서구 둔산동 1396번지 명진빌딩 10층,대전광역시 서구 둔산중로78번길 20 (둔산동),36.35329055,127.3850531,,0,
104,폴라리스,582-7373,대전광역시 서구 정림동 8-42번지,대전광역시 서구 혜천로 50 (정림동),36.30484771,127.3676416,%2F20200924_34%2F16009513804807HpVX_JPEG,https://pcmap.place.naver.com/restaurant/31192573/review/visitor#,
105,오케이테마타운,480-9000,대전광역시 서구 둔산동 1143번지,대전광역시 서구 문정로 7  (둔산동),36.34545324,127.3777393,,0,
106,아웃백스테이크하우스,527-6171,대전광역시 서구 갈마동 1435번지 2층,"대전광역시 서구 대덕대로 164  (갈마동,2층)",36.34766847,127.3737643,,0,
107,천객가,841-7464,대전광역시 서구 둔산동 1231번지,대전광역시 서구 계룡로491번길 54  (둔산동),36.3470293,127.3792521,2F20190707_243%2F1562466671854ukxsS_JPEG,https://pcmap.place.naver.com/restaurant/37638552/review/visitor#,
108,삼국지,482-7875,대전광역시 서구 만년동 380번지 5층,"대전광역시 서구 둔산대로117번길 34  (만년동,5층)",36.36646538,127.379668,00802_174%2F1596372275081miTLw_JPEG%2F6A,https://pcmap.place.naver.com/restaurant/1900851741/review/visitor#,
109,바이젠하우스,472-8111,대전광역시 서구 월평동 265번지 한독빌딩 지하1층,"대전광역시 서구 청사서로 46  (월평동,한독빌딩 지하1층)",36.36202144,127.3740725,,0,
110,블루문,487-8004,대전광역시 서구 만년동 324번지 대가빌딩 6층,"대전광역시 서구 만년로67번길 22  (만년동,대가빌딩 6층)",36.36838273,127.3776208,c.net%2F20170708_195%2F1499519865318TmSl,https://pcmap.place.naver.com/restaurant/181032555/review/visitor#,
111,친친 이탈리아노,488-7776,대전광역시 서구 만년동 363번지 1층,"대전광역시 서구 만년로68번길 31  (만년동,1층)",36.36578186,127.3776092,,0,
112,샤바바,483-2488,대전광역시 서구 둔산동 1439번지,대전광역시 서구 둔산중로40번길 20  (둔산동),36.3499885,127.3850671,2F20210628_270%2F162482973524557NTu_JPEG,https://pcmap.place.naver.com/restaurant/1652292308/review/visitor#,
113,그랑삐아또,485-8848,대전광역시 서구 탄방동 684번지,대전광역시 서구 계룡로571번길 20  (탄방동),36.34313856,127.3848634,,0,
114,데.바수스,489-2941.4,대전광역시 서구 둔산동 1026번지 정석빌딩 3층,"대전광역시 서구 대덕대로 243  (둔산동,정석빌딩 3층)",36.35455535,127.3760392,,0,
115,대명가옥 만나,487-7311,대전광역시 서구 만년동 346번지,대전광역시 서구 만년로68번길 15-23  (만년동),36.36677273,127.3788226,,0,
116,베니건스,488-6100,대전광역시 서구 둔산동 1047번지,대전광역시 서구 대덕대로 187  (둔산동),36.35004683,127.3742115,,0,
117,샤오차이나(둔산점),472-4572,대전광역시 서구 둔산동 1064번지,대전광역시 서구 대덕대로185번길 30  (둔산동),36.35054336,127.3731315,,0,
118,인디,,대전광역시 서구 둔산동 1369번지 넥서스밸리 B동 102호,"대전광역시 서구 대덕대로 246  (둔산동,넥서스밸리 B동 102호)",36.3547365,127.3770911,,0,
119,서태후,488-3933,대전광역시 서구 둔산동 1437번지 목련빌딩 4층,"대전광역시 서구 둔산남로91번길 16  (둔산동,목련빌딩 4층)",36.34963798,127.3850086,2F20201221_269%2F1608536497921hkFQR_JPEG,https://pcmap.place.naver.com/restaurant/1236348034/review/visitor#,
120,사학스카이라운지,472-2022,대전광역시 서구 둔산동 929번지,대전광역시 서구 한밭대로 809  (둔산동),36.35830317,127.3860236,,0,
121,미스터왕,477-3388,대전광역시 서구 둔산동 1176번지,대전광역시 서구 둔산로 72  (둔산동),36.35104976,127.3789484,0190711_92%2F1562823973011TvX29_JPEG%2Fq,https://pcmap.place.naver.com/restaurant/1224473116/review/visitor#,
122,케니지레스토랑,472-8211,대전광역시 서구 둔산동 1496번지 MB빌딩 9층,"대전광역시 서구 문예로 33  (둔산동,MB빌딩 9층)",36.34966324,127.3869563,s.naver.net%2F20141017_152%2Fthought10_1,https://pcmap.place.naver.com/restaurant/13572484/review/visitor#,
123,시애틀,476-7755,대전광역시 서구 만년동 323번지,대전광역시 서구 만년로67번길 18-9  (만년동),36.36838031,127.3778835,2F20200530_118%2F1590807622986iccv3_JPEG,https://pcmap.place.naver.com/restaurant/36286070/review/visitor#,
124,태원,488-8836,대전광역시 서구 둔산동 1242번지,대전광역시 서구 문정로 19  (둔산동),36.34619969,127.3787803,170812_108%2F1502482039818j6ynF_JPEG%2FO,https://pcmap.place.naver.com/restaurant/1991516777/review/visitor#,
125,르씨엘,528-2272,대전광역시 서구 갈마동 1129-2번지,대전광역시 서구 대덕대로 137  (갈마동),36.3459595,127.3715657,2F20200309_105%2F1583679824120kVT7m_JPEG,https://pcmap.place.naver.com/restaurant/1247670562/review/visitor#,
126,캐슬,545-1877,대전광역시 서구 관저동 567-2번지,대전광역시 서구 도안대로 83  (관저동),36.30922842,127.3312965,2F20200123_118%2F1579785992142T258s_JPEG,https://pcmap.place.naver.com/restaurant/35394960/review/visitor#,
127,비아로마,488-8044,대전광역시 서구 만년동 377번지,대전광역시 서구 둔산대로117번길 22  (만년동),36.36593074,127.3796667,27_39%2F16588885857584iBHv_JPEG%2F202207,https://pcmap.place.naver.com/restaurant/1864346539/review/visitor#,
128,오너스클럽,489-1735,대전광역시 서구 둔산동 1426번지 동암빌딩 1층,"대전광역시 서구 둔산남로 95  (둔산동,동암빌딩 1층)",36.34930576,127.3852072,831_265%2F1661951287278H593q_JPEG%2FKaka,https://pcmap.place.naver.com/restaurant/20352214/review/visitor#,
129,홍콩객잔,,강원도 속초시 청학동 482-279번지,강원도 속초시 중앙로 77  (청학동),38.20177498,128.58159,2F20201209_177%2F1607505152331SwP9X_JPEG,https://pcmap.place.naver.com/restaurant/1161322233/review/visitor#,
130,봉선루,747-8882,강원도 원주시 행구동 1537-6번지,강원도 원주시 행구로 259 (행구동),37.34345332,127.9817834,3%2F16633968643101yujF_JPEG%2FA1149937-8,https://pcmap.place.naver.com/restaurant/1097157743/review/visitor#,
131,장금성,033-765-1267,강원도 원주시 판부면 금대리 1284-1번지,강원도 원주시 판부면 치악로 1000,37.28352468,127.9969467,2F20180920_244%2F1537405708846JT405_JPEG,https://pcmap.place.naver.com/restaurant/15272567/review/visitor#,
132,한솔오크밸리사우스콘도중식당,033-730-3621,강원도 원주시 지정면 월송리 1061-21번지,강원도 원주시 지정면 오크밸리1길 68,37.43267308,127.8155067,,0,
133,타이하우스,033-734-8800,강원도 원주시 일산동 209-1번지,강원도 원주시 천사로 205-3 (일산동),37.35135179,127.9434628,50901_115%2F1441037110333cyFIC_JPEG%2FSU,https://pcmap.place.naver.com/restaurant/13440637/review/visitor#,
134,상하이손짜장,033-762-2888,강원도 원주시 관설동 1675-6번지,강원도 원주시 단관길 129 (관설동),37.32020973,127.9572712,2%2F1656492863926SIFH4_JPEG%2FDEE7DBC9-8,https://pcmap.place.naver.com/restaurant/31138861/review/visitor#,
135,짬뽕대장,033-735-7552,강원도 원주시 문막읍 건등리 1626-5번지,강원도 원주시 문막읍 왕건로 41-3,37.32275595,127.8258508,5fGuXjMFDTu_cY9lswdCETp40g.JPEG.kuji3924,https://pcmap.place.naver.com/restaurant/1204481944/review/visitor#,
136,아차해,904-0790,강원도 원주시 일산동 52-16번지,강원도 원주시 무실로12번길 10 (일산동),37.34912978,127.9457044,,0,
137,우리소,033-747-4714,강원도 원주시 지정면 간현리 1056-14번지,강원도 원주시 지정면 소금산길 14 (우리소영농조합),37.36467797,127.8306717,ic.net%2F20160108_176%2F1452234336585UOk,https://pcmap.place.naver.com/restaurant/18940066/review/visitor#,
138,라쿠치나(이태리식),798-5211,서울특별시 용산구 이태원동 258-7번지,서울특별시 용산구 회나무로44길 10  (이태원동),37.54055698,126.9935836,,0,
139,씨제이푸드(주) 에프터더레인 안국점 (정진구),02-730-2051,서울특별시 종로구 화동 117번지,서울특별시 종로구 북촌로 31-22  (화동),37.57955268,126.9808546,,0,
140,안나푸르나(Anna Purna),747-2976,서울특별시 종로구 창신동 695-1번지 3층,"서울특별시 종로구 종로 291  (창신동,3층)",37.57180629,127.0071846,tic.net%2F20150901_223%2F1441050980017Pb,https://pcmap.place.naver.com/restaurant/11836076/review/visitor#,
141,롸이즈온(주)베니건스이대점,,서울특별시 서대문구 대현동 101-7번지,서울특별시 서대문구 신촌역로 10  (대현동),37.55763931,126.9402797,,0,
142,(주)아모제마르쉐신촌점,322-7757,서울특별시 서대문구 창천동 72-14번지 캠퍼스프라자 지1층,"서울특별시 서대문구 신촌로 73  (창천동,캠퍼스프라자 지1층)",37.5563178,126.9316448,,0,
143,고구려짬뽕,031-841-7187,경기도 양주시 광사동 691-2번지,경기도 양주시 고읍로 152 (광사동),37.79230671,127.0834258,2F20181228_196%2F1545986872534ijkKN_JPEG,https://pcmap.place.naver.com/restaurant/37420238/review/visitor#,
144,중원해물모듬짬뽕,031-857-7730,경기도 양주시 남면 한산리 292-4번지,경기도 양주시 남면 삼육사로404번길 8-3,37.90998385,126.9945544,PxgE_pUFjorcEfnF6HbJJb-f5mfwKr1-_PEl58g.,https://pcmap.place.naver.com/restaurant/36754530/review/visitor#,
145,백제령삼계탕,055-248-2527,경상남도 창원시 마산합포구 중성동 25-3,경상남도 창원시 마산합포구 3·15대로 383-4 (중성동),35.20909587,128.5708166,f.pstatic.net%2F20150901_280%2F144104568,https://pcmap.place.naver.com/restaurant/11817021/review/visitor#,
146,아웃백 중앙점,055-285-9751,경상남도 창원시 성산구 중앙동 101-2 대흥인터빌,"경상남도 창원시 성산구 중앙대로 33, 대흥인터빌 (중앙동)",35.21904449,128.6720972,7%25B9%25C0%25CC%25BD%25BA_%25C4%25DA%25,https://pcmap.place.naver.com/restaurant/11849359/review/visitor#,
147,대진루,055-288-3236,경상남도 창원시 의창구 팔용동 7 농산물도매시장,"경상남도 창원시 의창구 차상로18번길 45, 1층 1호 (팔용동)",35.22981206,128.6348684,%2F20221115_103%2F1668494997221yWr56_JPE,https://pcmap.place.naver.com/restaurant/15133772/review/visitor#,
148,유로파크,,경상남도 창원시 마산합포구 해운동 68 유로스퀘어,"경상남도 창원시 마산합포구 해안대로 51, 유로스퀘어 9층 (해운동)",35.18187139,128.5609713,PpU722TBUTF4Izyl5KllQg.JPEG.ye_eun09%2FN,https://pcmap.place.naver.com/restaurant/90989498/review/visitor#,
149,푸와대동점,,경상남도 창원시 성산구 상남동 44-1 대동백화점,"경상남도 창원시 성산구 원이대로 730, 대동백화점 (상남동)",35.21946914,128.6855959,kpu826uU5oIgUuoXEKOw4LVI-aGDeS4nW-4h7V5R,https://pcmap.place.naver.com/restaurant/1265989696/review/visitor#,
150,블루핀,055-600-0819,경상남도 창원시 성산구 대원동 122 1층,"경상남도 창원시 성산구 원이대로 332 (대원동, 1층)",35.23933949,128.6521212,,0,
151,카르본&컬투,055-299-8365,경상남도 창원시 의창구 팔용동 100 드림피아,"경상남도 창원시 의창구 팔용로 428, 드림피아 204호 (팔용동)",35.25458065,128.6099106,,0,
152,양자강,055-546-2250,경상남도 창원시 진해구 용원동 1221-15,경상남도 창원시 진해구 용원남로 90 (용원동),35.10058756,128.8120881,,0,
153,금룡,055-276-5442,경상남도 창원시 성산구 반지동 78 케이프타운,"경상남도 창원시 성산구 원이대로393번길 25, 케이프타운 (반지동)",35.23996224,128.6596523,2F20201207_131%2F1607325750259XLgPm_JPEG,https://pcmap.place.naver.com/restaurant/11716004/review/visitor#,
154,참수타,055-275-8788,경상남도 창원시 성산구 신월동 77-12,경상남도 창원시 성산구 신월로 90 (신월동),35.22532866,128.6931089,tatic.net%2F20221103_41%2F1667442323731O,https://pcmap.place.naver.com/restaurant/34585231/review/visitor#,
155,천안문쌀짜장,055-551-1910,경상남도 창원시 진해구 태평동 86-2,경상남도 창원시 진해구 태평로 103 (태평동),35.14416606,128.6674218,c.net%2F20151206_270%2F1449410844729HBCL,https://pcmap.place.naver.com/restaurant/15366999/review/visitor#,
156,푸름각,055-551-9876,경상남도 창원시 진해구 평안동 1-10,경상남도 창원시 진해구 백구로 58-1 (평안동),35.15005049,128.6564047,9%2F1649999858103hz1gX_JPEG%2F8BC6DA9F-5,https://pcmap.place.naver.com/restaurant/15372742/review/visitor#,
157,호호손짜장,,경상남도 창원시 성산구 대방동 345-6,경상남도 창원시 성산구 대암로 141 (대방동),35.21322632,128.7070426,DPXrSmioYQ6pbsDQVQzGv2lCI9qduxihxHe49sFM,https://pcmap.place.naver.com/restaurant/15172989/review/visitor#,
158,푸와차이나,055-600-5818,경상남도 창원시 성산구 대원동 121 더시티세븐,"경상남도 창원시 성산구 원이대로 320, 더시티세븐 1층 (대원동)",35.24004484,128.6499978,220501_227%2F1651407843095pPCRt_JPEG%2FT,https://pcmap.place.naver.com/restaurant/315014434/review/visitor#,
159,용봉,055-267-0553,경상남도 창원시 성산구 신월동 45-3,"경상남도 창원시 성산구 상남로 206, 지하1층 (신월동)",35.23002903,128.6857368,,0,
160,1985금화중식당,055-267-5242,경상남도 창원시 의창구 팔용동 169-7,경상남도 창원시 의창구 남산로27번길 1 (팔용동),35.25903685,128.6102033,,0,
161,수금재,,경상남도 창원시 성산구 상남동 5-4,경상남도 창원시 성산구 마디미로4번길 5 (상남동),35.22391231,128.6821586,2F20190430_235%2F1556597974561FCVs7_JPEG,https://pcmap.place.naver.com/restaurant/37921657/review/visitor#,
162,성산명가,055-263-6618,경상남도 창원시 성산구 상남동 35-4 성산명가,"경상남도 창원시 성산구 마디미로63번길 7, 성산명가 (상남동)",35.21919778,128.6797198,0220727_95%2F1658912896208QfJ4a_JPEG%2Fm,https://pcmap.place.naver.com/restaurant/12985031/review/visitor#,
163,하트인세코,055-212-1133,경상남도 창원시 성산구 대원동 123 창원컨벤션센터,"경상남도 창원시 성산구 원이대로 362, 창원컨벤션센터 (대원동)",35.23857495,128.6539189,F20141226_263%2Fbellagia75_1419527816960,https://pcmap.place.naver.com/restaurant/21423705/review/visitor#,
164,삼합짬뽕,055-299-0991,경상남도 창원시 의창구 북면 화천리 432-21,경상남도 창원시 의창구 북면 천주로 579,35.30796304,128.5977198,00807_158%2F1596770376795igjyp_JPEG%2FPy,https://pcmap.place.naver.com/restaurant/37204671/review/visitor#,
165,어주,055-262-0760,경상남도 창원시 성산구 내동 456-21 일성그라미아파트,"경상남도 창원시 성산구 연덕로184번길 23, 일성그라미아파트 (내동)",35.21824869,128.6653261,2F20181019_255%2F1539926289630A2uUl_JPEG,https://pcmap.place.naver.com/restaurant/18300550/review/visitor#,
166,청화관,,경상남도 창원시 성산구 신촌동 103-5,"경상남도 창원시 성산구 월림로65번길 10, 1층 (신촌동)",35.20809538,128.6382169,.pstatic.net%2F20220114_7%2F164214253684,https://pcmap.place.naver.com/restaurant/15180846/review/visitor#,
167,중국관,055-263-6444,경상남도 창원시 성산구 사파동 3 대한빌딩,"경상남도 창원시 성산구 창이대로663번길 7, 대한빌딩 1층 (사파동)",35.22583214,128.6967256,%2F20190511_50%2F1557546774106MmCam_JPEG,https://pcmap.place.naver.com/restaurant/19179043/review/visitor#,
168,장독짜장,055-288-1536,경상남도 창원시 의창구 사림동 24-8,경상남도 창원시 의창구 창이대로469번길 19 (사림동),35.24042009,128.6848794,c.net%2F20170112_257%2F1484191360363DJy9,https://pcmap.place.naver.com/restaurant/38765810/review/visitor#,
169,박리다매,055-244-0621,경상남도 창원시 마산합포구 남성동 246-1 한백마리나타운,"경상남도 창원시 마산합포구 해안대로 331, 한백마리나타운 1층 (남성동)",35.20163321,128.5736038,200811_21%2F1597139240185vlYNS_JPEG%2Fo0,https://pcmap.place.naver.com/restaurant/1012665933/review/visitor#,
170,오발탄,,경상남도 창원시 성산구 상남동 12-5,경상남도 창원시 성산구 마디미로15번길 11 (상남동),35.22234736,128.6833322,,0,
171,푸와 중국관,,경상남도 창원시 성산구 상남동 31-3 트윈스2빌딩,"경상남도 창원시 성산구 마디미로64번길 7, 트윈스2빌딩 (상남동)",35.21960967,128.6782494,90129_254%2F1548769867773adJJt_JPEG%2FQV,https://pcmap.place.naver.com/restaurant/15202384/review/visitor#,
172,대복성,055-262-8181,경상남도 창원시 성산구 용호동 73-34 윤성빌딩,경상남도 창원시 성산구 용지로153번길 4-20 (용호동),35.22961385,128.6784899,29_277%2F1651206232705o0CHs_JPEG%2FScree,https://pcmap.place.naver.com/restaurant/16700463/review/visitor#,
173,칭따오 황제쟁반짜장,,경상남도 창원시 성산구 중앙동 97-3 상지솔리움,"경상남도 창원시 성산구 중앙대로 75, 상지솔리움 (중앙동)",35.22199355,128.6746004,G%2FuserRegistration_da535a820cc246ddb2d,https://pcmap.place.naver.com/restaurant/15193517/review/visitor#,
174,이화원,055-293-0885,경상남도 창원시 의창구 팔용동 40-9,경상남도 창원시 의창구 차룡로48번길 66 (팔용동),35.23997989,128.6304042,atic.net%2F20220623_131%2F16559761701084,https://pcmap.place.naver.com/restaurant/1582844043/review/visitor#,
175,마차이짬뽕,055-256-9888,경상남도 창원시 의창구 중동 754-3,경상남도 창원시 의창구 의창대로266번길 5 (중동),35.26058433,128.6244851,,0,
176,금화중식당,055-267-5248,경상남도 창원시 성산구 외동 853-6 로데오가구타운,"경상남도 창원시 성산구 창원대로 840, 로데오가구타운 (외동)",35.2113191,128.6775857,201126_74%2F1606380227793Q2b2l_JPEG%2FjK,https://pcmap.place.naver.com/restaurant/1104572711/review/visitor#,
177,하늘땅 석동본점,,경상남도 창원시 진해구 석동 515-2 하늘땅,"경상남도 창원시 진해구 진해대로728번길 7, 하늘땅 (석동)",35.15897076,128.6922877,,0,
178,하림중화요리,,경상남도 창원시 성산구 신촌동 15-10 신촌빌딩,"경상남도 창원시 성산구 신촌로 29, 신촌빌딩 (신촌동)",35.2069814,128.6241519,HhTLH39Pt8mEy_Hsg.JPEG.jyj2432176%2FKaka,https://pcmap.place.naver.com/restaurant/32102613/review/visitor#,
179,키스(Kiss)나이트클럽,061-741-4747,전라남도 순천시 덕암동 188-46번지,,inf,inf,,0,
180,에코라운지,061-811-0400,전라남도 순천시 조례동 1587-4번지,,34.95395421,127.5189917,221201_233%2F1669876670660cl79V_JPEG%2FK,https://pcmap.place.naver.com/restaurant/1079321989/review/visitor#,
181,수국정,,경상남도 창원시 마산합포구 구산면 구복리 376-1,경상남도 창원시 마산합포구 구산면 해양관광로 1927-46,35.06422097,128.5602162,bsT3QiXCYDGmN6OUmA8qzZDXhsZmaX7IdUxWieWy,https://pcmap.place.naver.com/restaurant/1732267591/review/visitor#,
182,타오(중국식),2085-2888,"서울특별시 구로구 구로동 212-8 대륭포스트타워1 지하 125, 126호","서울특별시 구로구 디지털로 288 (구로동, 대륭포스트타워1 지하 125, 126호)",37.48367839,126.892529,,0,
183,도원(중국식),854-5552,서울특별시 구로구 구로동 437-1번지,서울특별시 구로구 가마산로 229 (구로동),37.49427204,126.8834667,,0,
184,상하이궁신도림점(중국식),3439-7793,"서울특별시 구로구 신도림동 337번지 대우푸르지오 211, 212호","서울특별시 구로구 경인로 661 (신도림동, 대우푸르지오 211, 212호)",37.50942084,126.8848536,,0,
185,얌차이나(구로) 중국식,818-1414,서울특별시 구로구 구로동 573번지 애경백화점 7층,"서울특별시 구로구 구로중앙로 152, 7층 (구로동, 애경백화점)",37.50117651,126.8799492,,0,
186,소용궁(중국식),826-8009,서울특별시 구로구 구로동 197-5번지 삼성IT밸리 지층 109호,"서울특별시 구로구 디지털로33길 27, 지층 109호 (구로동, 삼성IT밸리)",37.48610839,126.8917595,,0,
187,죽림(중국식),862-1642,"서울특별시 구로구 구로동 212-30번지 에이스트윈타워2차 지하동 104,105호","서울특별시 구로구 디지털로 273, 지하동 104,105호 (구로동, 에이스트윈타워2차)",37.48395423,126.8912237,,0,
188,디큐브한식저잣거리,2211-0740,서울특별시 구로구 신도림동 692번지 지하2층,"서울특별시 구로구 경인로 662, 지하2층 (신도림동)",37.50858481,126.8860075,,0,
189,신락원 제라-1-1565호,02-2244-0008,서울특별시 동대문구 전농동 60-32,"서울특별시 동대문구 전농로20길 2, 1층 (전농동)",37.57888519,127.0542918,,0,
190,비나레스토랑   제라1-1112(인도식,926-5860,서울특별시 동대문구 제기동 137-41 1층,서울특별시 동대문구 안암로24길 4 (제기동),37.58843337,127.0323852,,0,
191,영화장    제라1-1066,967-9595,서울특별시 동대문구 이문동 288-23,서울특별시 동대문구 휘경로 3-8 (이문동),37.59654503,127.0580304,,0,
192,공자식탁     제라1-1010 (중국식,966-7789,서울특별시 동대문구 제기동 1142-8 지하1~1층,서울특별시 동대문구 회기로8길 11 (제기동),37.59092775,127.0369851,,0,
193,도원 제라1-1541호,,서울특별시 동대문구 회기동 42-74,"서울특별시 동대문구 회기로13길 22, 1층 (회기동)",37.59247922,127.0482833,,0,
194,복가주점 제라-1-1555호,,"서울특별시 동대문구 회기동 16-65 2,3층","서울특별시 동대문구 경희대로 3, 2,3층층 (회기동)",37.5919022,127.0492339,,0,
195,실크로드(중국식),2066-6100,서울특별시 구로구 고척동 69-34,서울특별시 구로구 경인로 398 (고척동),37.49714571,126.8616216,,0,
196,왕중왕미식성(중국식),856-9245,서울특별시 구로구 가리봉동 126-60번지,서울특별시 구로구 우마길 27 (가리봉동),37.48073196,126.886148,,0,
197,일폰테,,경상북도 포항시 남구 대잠동 780-177번지,경상북도 포항시 남구 행복길75번길 11  (대잠동),36.01452161,129.3316816,,0,
198,블루오션,,경상북도 포항시 북구 죽도동 641-9번지,경상북도 포항시 북구 중흥로 187  (죽도동),36.02091207,129.3532887,7540JQONr_JPEG%2F%25B8%25F1%25BF%25E5%25,https://pcmap.place.naver.com/restaurant/16522628/review/visitor#,
199,신차이나,054-635-5957,경상북도 영주시 풍기읍 산법리 597-11번지,경상북도 영주시 풍기읍 동양대로 107-4,36.87903096,128.5304613,ouGOZz5e3UD_NWBGoCUKCaWeDMj5v-c-E_4lnP8g,https://pcmap.place.naver.com/restaurant/1123448617/review/visitor#,
200,천안문1호점,055-275-4680,경상남도 창원시 성산구 성산동 77-1 SK테크노파크 넥스동 111호,"경상남도 창원시 성산구 완암로 50, SK테크노파크 넥스동 111호 (성산동)",35.20565378,128.6608622,220421_138%2F1650512048185nMY8L_JPEG%2FK,https://pcmap.place.naver.com/restaurant/1658847738/review/visitor#,
201,천안문옛날짜장,055-267-1910,경상남도 창원시 성산구 천선동 1157 조광하우젠 아파트 지하103호,"경상남도 창원시 성산구 안민로159번길 10, 지하103호 (천선동, 조광하우젠 아파트)",35.18605141,128.6907029,2F20210219_269%2F1613736621091UnXhz_JPEG,https://pcmap.place.naver.com/restaurant/1047704541/review/visitor#,
202,명품,220660977,경기도 광명시 철산동 463-38 힐팰리스,"경기도 광명시 시청로 15, 지하층 (철산동, 힐팰리스)",37.47835423,126.860656,ic.net%2F20160225_107%2F1456377673133msK,https://pcmap.place.naver.com/restaurant/31813085/review/visitor#,
203,(주)오르세움 민티엔,02-899-8333,경기도 광명시 일직동 508-4,"경기도 광명시 일직로12번길 24, 201호 (일직동)",37.42089949,126.8789547,,0,
204,육미대가,482-9114,대전광역시 서구 만년동 284번지,대전광역시 서구 대덕대로 370  (만년동),36.36593868,127.3771,2F20200814_103%2F15974000777186mkF9_JPEG,https://pcmap.place.naver.com/restaurant/1895623966/review/visitor#,
205,이금당,487-3388,대전광역시 서구 둔산동 1455번지,대전광역시 서구 둔산로 125  (둔산동),36.35158411,127.3850779,,0,
206,하림성,02-899-9296,경기도 광명시 하안동 339-15,경기도 광명시 범안로 949 (하안동),37.45718909,126.8674015,2F20190312_129%2F1552369197836Es82J_JPEG,https://pcmap.place.naver.com/restaurant/1820861671/review/visitor#,
207,타오,,경기도 광명시 하안동 35-6번지,경기도 광명시 하안로287번길 15-1 (하안동),37.46073265,126.8760573,191129_74%2F1575023332639YrdhA_JPEG%2Ft1,https://pcmap.place.naver.com/restaurant/17878339/review/visitor#,
208,(주)바른손 베니건스 압구정점,517-5007,서울특별시 강남구 논현동 94번지,서울특별시 강남구 도산대로 334  (논현동),37.52260514,127.0356454,,0,
209,젠하이더웨이,541-1461,"서울특별시 강남구 신사동 645-18번지 1,2층","서울특별시 강남구 언주로168길 24  (신사동,1,2층)",37.52601052,127.0326805,,0,
210,중화요리첸,02-516-4808,서울특별시 강남구 청담동 52-8번지 지상1층,"서울특별시 강남구 도산대로94길 33 (청담동,지상1층)",37.52421084,127.0499361,tic.net%2F20160122_224%2F14534096403953I,https://pcmap.place.naver.com/restaurant/13275659/review/visitor#,
211,티엔티엔,566-8090,서울특별시 강남구 역삼동 708-33번지 파라다이스빌딩 지하1층 101호,"서울특별시 강남구 테헤란로52길 21  (역삼동,파라다이스빌딩 지하1층 101호)",37.50292758,127.0456565,,0,
212,폴,3445-8867,서울특별시 강남구 청담동 22-16번지 1층,"서울특별시 강남구 선릉로146길 15  (청담동,1층)",37.52212357,127.0380574,.net%2F20230131_23%2F1675146833160pawQw_,https://pcmap.place.naver.com/restaurant/1472277679/review/visitor#,
213,(주)가배전문점,02-3444-0770,서울특별시 강남구 청담동 96-6번지 1층,"서울특별시 강남구 도산대로75길 19  (청담동,1층)",37.52542547,127.0426817,,0,
214,(주)파리크라상 퀸스파크 청담점,542-4073,서울특별시 강남구 청담동 83-18번지,서울특별시 강남구 압구정로60길 22  (청담동),37.52592195,127.0387181,,0,
215,78온더라이즈,3454-0022,서울특별시 강남구 삼성동 78번지 삼안빌딩 1층,"서울특별시 강남구 영동대로 648  (삼성동,삼안빌딩 1층)",37.51998627,127.0548312,,0,
216,그릴아지사이,565-7442,서울특별시 강남구 역삼동 647-11번지 동영빌딩 지상 1층,"서울특별시 강남구 테헤란로13길 8-10  (역삼동,동영빌딩 지상 1층)",37.50035668,127.030356,Cb0Ca-OJYrZma4iZsuPcGk03bweicjvcUAvVaiqw,https://pcmap.place.naver.com/restaurant/13513665/review/visitor#,
217,란나타이(양재점),577-0913,서울특별시 강남구 도곡동 953-1번지 지하1층 B107호,"서울특별시 강남구 강남대로 240  (도곡동,지하1층 B107호)",37.48530932,127.0315134,,0,
218,첸,02-565-7454,서울특별시 강남구 역삼동 746-12번지,서울특별시 강남구 논현로77길 3  (역삼동),37.49696423,127.0353716,ic.net%2F20220410_112%2F1649547826898pLc,https://pcmap.place.naver.com/restaurant/1754370180/review/visitor#,
219,팔장선원,565-8887,서울특별시 강남구 도곡동 518-7번지 1층,"서울특별시 강남구 논현로30길 6  (도곡동,1층)",37.48288197,127.0402596,,0,
220,(주)이닝,547-7444,서울특별시 강남구 청담동 22-12번지 1층,"서울특별시 강남구 도산대로58길 14  (청담동,1층)",37.52240873,127.0383948,%2F20181114_48%2F1542178191156voTh7_JPEG,https://pcmap.place.naver.com/restaurant/11711159/review/visitor#,
221,도쿄 사이카보,517-0108,서울특별시 강남구 청담동 127-19번지 지상1층,"서울특별시 강남구 도산대로101길 9  (청담동,지상1층)",37.52576942,127.0495374,0200515_4%2F1589498953770mXcAq_JPEG%2FsP,https://pcmap.place.naver.com/restaurant/13272850/review/visitor#,
222,드마리,512-0830,서울특별시 강남구 신사동 580-5번지 지하1층,"서울특별시 강남구 논현로175길 6  (신사동,지하1층)",37.52631593,127.0248701,6%2F1637226289409c6j7F_JPEG%2F6B2F37B6-1,https://pcmap.place.naver.com/restaurant/1235533587/review/visitor#,
223,크리스탈제이드상하이딜라이트,02-3449-5864,서울특별시 강남구 압구정동 현대백화점 본점 5층,,inf,inf,,0,
224,키라,02-3446-7990,서울특별시 강남구 청담동 99-12번지 2층,"서울특별시 강남구 도산대로75길 14  (청담동,2층)",37.52517146,127.0431779,,0,
225,대가방본점,544-6336,서울특별시 강남구 논현동 99-7번지 지상1층,"서울특별시 강남구 선릉로145길 13  (논현동,지상1층)",37.52118641,127.035642,tic.net%2F20151104_47%2F1446625234872l4L,https://pcmap.place.naver.com/restaurant/11839623/review/visitor#,
226,일일향,545-6154,서울특별시 강남구 신사동 601-3번지 동우빌딩 지상1층,"서울특별시 강남구 논현로168길 25  (신사동,동우빌딩 지상1층)",37.52382033,127.0274629,,0,
227,(주)토마틸로지에프씨,2112-3883,서울특별시 강남구 역삼동 강남파이낸스센터 지하2층,,inf,inf,,0,
228,(주)일본요리점 청산,3442-4451,서울특별시 강남구 청담동 2-10번지 남강빌딩 지하 1층,"서울특별시 강남구 도산대로 412 (청담동, 남강빌딩)",37.52296191,127.0378183,,0,
229,그라노,545-1330,서울특별시 강남구 신사동 645-1번지 히든하우스 1층,"서울특별시 강남구 언주로168길 16  (신사동,히든하우스 1층)",37.52615216,127.0320407,,0,
230,공리(논현점),541-7663,서울특별시 강남구 논현동 240-14번지 1층,"서울특별시 강남구 선릉로129길 24  (논현동,1층)",37.51608921,127.0366134,ic.net%2F20170227_66%2F14881717940717wPb,https://pcmap.place.naver.com/restaurant/360881123/review/visitor#,
231,띵호아,573-2267,서울특별시 강남구 개포동 1237-10번지 지상1층,"서울특별시 강남구 개포로20길 6  (개포동,지상1층)",37.47828783,127.0440753,EZ1KHItlf6fVqJqxNg88JXbZ2NiXXS1fqjmz2iJA,https://pcmap.place.naver.com/restaurant/17927885/review/visitor#,
232,나베야,3453-0936,서울특별시 강남구 대치동 899-3번지 2층,"서울특별시 강남구 역삼로63길 23  (대치동,2층)",37.50271012,127.0488745,2F20200415_245%2F1586955631781RE0Yc_JPEG,https://pcmap.place.naver.com/restaurant/1887959166/review/visitor#,
233,더차이나,558-0321,서울특별시 강남구 대치동 890-30번지 지하1층,"서울특별시 강남구 선릉로90길 42  (대치동,지하1층)",37.50482167,127.0497262,200929_36%2F1601359436563L0K7D_JPEG%2Fgt,https://pcmap.place.naver.com/restaurant/13094719/review/visitor#,
234,도일처(정찬우),549-2888,서울특별시 강남구 논현동 86-5번지,서울특별시 강남구 논현로132길 13  (논현동),37.51527212,127.0287124,,0,
235,레스토랑 호카이도,516-0210,서울특별시 강남구 신사동 627-11번지 포도빌딩 지하1층,"서울특별시 강남구 언주로 825  (신사동,포도빌딩 지하1층)",37.52382933,127.0298444,,0,
236,일품향(이미영),02-3457-4807,서울특별시 강남구 대치동 922-23번지,서울특별시 강남구 선릉로64길 5  (대치동),37.49790237,127.0497693,,0,
237,차이웍,02-564-7536,서울특별시 강남구 대치동 1021-1번지 101호,"서울특별시 강남구 도곡로 446  (대치동,101호)",37.49799834,127.0565128,atic.net%2F20150831_40%2F14410277785691u,https://pcmap.place.naver.com/restaurant/12833898/review/visitor#,
238,청학루,02-563-0023,서울특별시 강남구 역삼동 668-12번지,서울특별시 강남구 봉은사로30길 70  (역삼동),37.50299909,127.0338065,2F1657782722110EyI4t_JPEG%2F37d6160f-034,https://pcmap.place.naver.com/restaurant/18587658/review/visitor#,
239,(주)바른손베니건스 코엑스점,567-8600,서울특별시 강남구 논현동 94번지,서울특별시 강남구 도산대로 334  (논현동),37.52260514,127.0356454,,0,
240,(주)이목원 배나무골,3463-5292,서울특별시 강남구 도곡동 대신증권빌딩 지하 1층,,inf,inf,,0,
241,(주)삼양만나취영루,511-6666,서울특별시 강남구 논현동 141-3번지,서울특별시 강남구 학동로2길 11  (논현동),37.5105786,127.0198783,,0,
242,대려도,555-05550,서울특별시 강남구 역삼동 833번지,서울특별시 강남구 역삼로 118  (역삼동),37.49334874,127.0291445,ic.net%2F20161128_59%2F1480313108095btAQ,https://pcmap.place.naver.com/restaurant/12008857/review/visitor#,
243,(주)뉴후론티어산업 그릴에이치,02-3446-5547,서울특별시 강남구 청담동 92-8번지,서울특별시 강남구 도산대로 439  (청담동),37.524139,127.0408818,,0,
244,채운,02-516-8837,서울특별시 강남구 신사동 525-10번지,서울특별시 강남구 논현로175길 107  (신사동),37.52244459,127.0179336,150905_48%2F1441431202255r5zlL_JPEG%2FSU,https://pcmap.place.naver.com/restaurant/35637619/review/visitor#,
245,(주)다연외식 현경,565-3849,"서울특별시 강남구 대치동 991-2번지 태호빌딩 1층, 지하1층","서울특별시 강남구 도곡로 528  (대치동,태호빌딩 1층, 지하1층)",37.49962396,127.0612444,,0,
246,(주)바른손 베니건스 테헤란로점,3452-7500,서울특별시 강남구 삼성동 158-10번지 마젤란21아스테리움 B101-B104호,"서울특별시 강남구 테헤란로87길 17  (삼성동,마젤란21아스테리움 B101-B104호)",37.50880902,127.0554869,,0,
247,가향,549-6858,서울특별시 강남구 논현동 83-20번지,서울특별시 강남구 학동로37길 23  (논현동),37.51680802,127.0314115,%2F20190412_83%2F1555050732956QYRMd_JPEG,https://pcmap.place.naver.com/restaurant/36785528/review/visitor#,
248,강가 선릉점,3468-4670,서울특별시 강남구 대치동 금강타워 지하1층,,inf,inf,tic.net%2F20150831_111%2F14410218763666N,https://pcmap.place.naver.com/restaurant/12794575/review/visitor#,
249,루안(아세아타워점),562-5565,서울특별시 강남구 역삼동 아세아타워빌딩 지하1층,,inf,inf,,0,
250,칠룡성,830-2284,서울특별시 관악구 신림동 1643-4번지,서울특별시 관악구 시흥대로 576  (신림동),37.48406353,126.9001936,,0,
251,아웃백스테이크하우스 서울대점,884-4761,서울특별시 관악구 봉천동 1601-1번지,서울특별시 관악구 남부순환로 1840 (봉천동),37.48035905,126.951411,,0,
252,만리장성,875-2224,서울특별시 관악구 봉천동 1598-21번지,서울특별시 관악구 관악로 146  (봉천동),37.47829183,126.9496774,,0,
253,아리차이,877-1272,서울특별시 관악구 신림동 1430-11번지,서울특별시 관악구 신림동길 4  (신림동),37.48768486,126.9253794,ic.net%2F20150901_204%2F14410737705259Nd,https://pcmap.place.naver.com/restaurant/11704746/review/visitor#,
254,라꼬미다데수다메리카,070-4521-9421,서울특별시 관악구 봉천동 1604-1번지 1층,"서울특별시 관악구 관악로14길 22, 1층 (봉천동)",37.47900593,126.9508763,,0,
255,China 唐(차이나당),,서울특별시 관악구 봉천동 1625-29번지 2층,"서울특별시 관악구 낙성대로 16, 2층 (봉천동, 낙성대빌딩)",37.47709878,126.9559024,,0,
256,味차이,975-8313,서울특별시 노원구 공릉동 312-24번지,서울특별시 노원구 동일로191가길 73 (공릉동),37.62826095,127.0673725,25CC%25C3%25AD%25C0%25CC%25B0%25E6%25C8%,https://pcmap.place.naver.com/restaurant/1836121988/review/visitor#,
257,천객가 수락산역점,02-2653-8315,서울특별시 노원구 상계동 1117-16번지,서울특별시 노원구 동일로242가길 22  (상계동),37.67685306,127.0531586,,0,
258,천지천(Chun Ji Chun),936-3969,서울특별시 노원구 상계동 389-683번지,서울특별시 노원구 상계로27길 7  (상계동),37.65891044,127.0677212,,0,
259,더키친살바토레쿠오모압구정점,2127-9835,서울특별시 강남구 신사동 646-2번지 지상1층,"서울특별시 강남구 언주로164길 29  (신사동,지상1층)",37.52565763,127.0331327,,0,
260,젤렌,3785-1555,서울특별시 용산구 이태원동 116-14번지 지상2층,"서울특별시 용산구 이태원로27가길 52  (이태원동,지상2층)",37.53513759,126.9894174,10719_232%2F1626694233308cMC1z_JPEG%2FUf,https://pcmap.place.naver.com/restaurant/1066843466/review/visitor#,
261,남해일식,055-285-8488,경상남도 창원시 성산구 신월동 39-4,경상남도 창원시 성산구 상남로 224-1 (신월동),35.231447,128.6869513,210908_69%2F16310279468661g5Tz_JPEG%2FsF,https://pcmap.place.naver.com/restaurant/1281211405/review/visitor#,
262,(주)코코스정자점,712-4364,경기도 성남시 분당구 정자동 60번지,경기도 성남시 분당구 내정로107번길 2  (정자동),37.36991728,127.1116093,,0,
263,태국정통요리,,경기도 성남시 수정구 창곡동 195-5번지,,inf,inf,2F20210414_135%2F1618380808629gp9zb_JPEG,https://pcmap.place.naver.com/restaurant/1316270372/review/visitor#,
264,아모제마르쉐분당점,707-7755,경기도 성남시 분당구 서현동 263번지,,37.38504977,127.1204566,,0,
265,코코마리,,경기도 성남시 분당구 분당동 98-3번지,경기도 성남시 분당구 서현로 435  (분당동),37.3742245,127.1421744,190812_150%2F1565607435283Y1Jal_JPEG%2FM,https://pcmap.place.naver.com/restaurant/1314330974/review/visitor#,
266,만다린,,경기도 성남시 분당구 서현동 27-2번지,,37.38398721,127.1380055,%2F20171101_162%2F1509526909450QspVt_PNG,https://pcmap.place.naver.com/restaurant/32096312/review/visitor#,
267,탈리,797-8192,경기도 성남시 분당구 율동 111-5번지,경기도 성남시 분당구 문정로148번길 9  (율동),37.38356479,127.1485691,9%2F1658727201452dc9ID_JPEG%2FF72F63C6-7,https://pcmap.place.naver.com/restaurant/1368620228/review/visitor#,
268,티지아이프라이분당점,,경기도 성남시 분당구 서현동 97-3번지,경기도 성남시 분당구 서현로321번길 10  (서현동),37.38003519,127.1332283,,0,
269,이향원,031-427-9881,경기도 군포시 산본동 1026-30번지,"경기도 군포시 엘에스로 175 (산본동, 에스에이타워)",37.37534381,126.9403606,F%25C0%25CC%25C7%25E2%25BF%25F8_%25B8%25,https://pcmap.place.naver.com/restaurant/18998005/review/visitor#,
270,긴자인도레스토랑,031-392-2203,"경기도 군포시 산본동 1136번지 한솔프라자 401,402호","경기도 군포시 산본로323번길 16-31 (산본동, 한솔프라자)",37.36010314,126.9281257,ic.net%2F20151209_132%2F14496317983709n3,https://pcmap.place.naver.com/restaurant/20601599/review/visitor#,
271,윤쉐프의 짬뽕데이 산본점,031-392-3922,경기도 군포시 산본동 1125번지 현대코아텔,"경기도 군포시 산본로 341, 현대코아텔 207, 208호 (산본동)",37.36088335,126.9294919,Ob1VcDk13yDZcGu-8TY54g.JPEG.chrryminjung,https://pcmap.place.naver.com/restaurant/1327139745/review/visitor#,
272,산동성,031-391-3666,경기도 군포시 산본동 1131-1번지 미성빌딩 201호,"경기도 군포시 산본로323번길 4-21 (산본동, 미성빌딩)",37.36025805,126.9294961,2F20191127_232%2F1574861933604JyM48_JPEG,https://pcmap.place.naver.com/restaurant/19542202/review/visitor#,
273,아웃백스테이크하우스 상동점,327-2571,경기도 부천시 상동 535-8번지,,37.5063216,126.7519787,7%25B9%25C0%25CC%25BD%25BA_%25C4%25DA%25,https://pcmap.place.naver.com/restaurant/11849008/review/visitor#,
274,안나프르나,662-5075,경기도 부천시 심곡동 162-27번지,,37.4881312,126.7816379,tic.net%2F20150901_223%2F1441050980017Pb,https://pcmap.place.naver.com/restaurant/11836076/review/visitor#,
275,북경,031-399-6622,경기도 군포시 산본동 1129번지 2층,"경기도 군포시 산본로323번길 4-7 (산본동, 청우빌딩)",37.35968388,126.9299765,static.net%2F20221031_283%2F166718418750,https://pcmap.place.naver.com/restaurant/33704700/review/visitor#,
276,아향,031-393-0806,경기도 군포시 산본동 1151-10번지 국제교육센터 203호,"경기도 군포시 수리산로 112 (산본동, 군포국제교육센터)",37.35887906,126.9157123,2F20180720_228%2F1532062984129loarL_JPEG,https://pcmap.place.naver.com/restaurant/1323552296/review/visitor#,
277,아웃백스테이크하우스 천호점,,서울특별시 강동구 천호동 427-3번지,"서울특별시 강동구 올림픽로 660, 지하1층 (천호동, 천호엘크루주상복합)",37.54016201,127.1216273,7%25B9%25C0%25CC%25BD%25BA_%25C4%25DA%25,https://pcmap.place.naver.com/restaurant/11621117/review/visitor#,
278,베이징스토리,031-392-1180,경기도 군포시 당동 974-3번지 재우빌딩,"경기도 군포시 용호1로 10, 재우빌딩 101, 102호 (당동)",37.34357836,126.9355526,%2F20171205_35%2F1512461790388SWsuJ_JPEG,https://pcmap.place.naver.com/restaurant/1432906783/review/visitor#,
279,김김밥밥본점,055-262-5556,경상남도 창원시 성산구 용호동 73-25 신우빌딩,"경상남도 창원시 성산구 용지로153번길 4-25, 신우빌딩 (용호동)",35.22991974,128.6783835,2%2F16699903910622dmc6_JPEG%2FCB9D6846-E,https://pcmap.place.naver.com/restaurant/1778434716/review/visitor#,
280,가야마루,055-331-8892,경상남도 김해시 어방동 1104-9,경상남도 김해시 인제로51번길 6 (어방동),35.23338282,128.9015007,t%2F20230109_44%2F1673261290887Y4Sjq_JPE,https://pcmap.place.naver.com/restaurant/34616041/review/visitor#,
281,진흥관,031-826-4077,경기도 양주시 장흥면 울대리 390-2,"경기도 양주시 장흥면 호국로 550, 1층",37.71829597,126.9722138,-PNaVlg1Fz_2W_og.JPEG.yoojjin90%2F4%25BF,https://pcmap.place.naver.com/restaurant/526374123/review/visitor#,
282,거구장,(054)745-7551,경상북도 경주시 신평동 220번지,,35.84024582,129.2859335,191114_253%2F1573701251565TbYMf_JPEG%2FH,https://pcmap.place.naver.com/restaurant/1213745867/review/visitor#,
283,신라회관,(054)749-7727,경상북도 경주시 황남동 142-3번지,,35.83373328,129.2120129,2F20200628_138%2F15933442301621zst3_JPEG,https://pcmap.place.naver.com/restaurant/18320985/review/visitor#,
284,베르사이유레스토랑,(054)745-0013,경상북도 경주시 신평동 391-3번지,,35.84550913,129.2785825,,0,
285,데테라스,(054)773-8084,경상북도 경주시 노동동 33-3번지,,35.84192563,129.2080203,tatic.net%2F20200529_35%2F1590717432021l,https://pcmap.place.naver.com/restaurant/11678781/review/visitor#,
286,녹원,,전라북도 순창군 순창읍 순화리 299,전라북도 순창군 순창읍 순창5길 28,35.37382561,127.136855,2F20210627_186%2F1624760834302mIizn_JPEG,https://pcmap.place.naver.com/restaurant/1603975862/review/visitor#,
287,궁전가든,,전라북도 순창군 순창읍 가남리 545-1,전라북도 순창군 순창읍 순창로 137,35.36776509,127.1372175,c.net%2F20170304_154%2F1488609793298KqXt,https://pcmap.place.naver.com/restaurant/34043642/review/visitor#,
288,향옥정,,경상남도 김해시 불암동 192-1,경상남도 김해시 김해대로 2787-19 (불암동),35.2226691,128.9255504,-phinf.pstatic.net%2F20220121_167%2F1642,https://pcmap.place.naver.com/restaurant/1473401810/review/visitor#,
289,수손짜장,055-336-0331,경상남도 김해시 어방동 1062-10,경상남도 김해시 분성로 545 (어방동),35.23587333,128.9025669,2F20220219_181%2F1645243044895kHtFi_JPEG,https://pcmap.place.naver.com/restaurant/13390144/review/visitor#,
290,갑오삼계탕,055-331-3389,경상남도 김해시 대청동 302-3,경상남도 김해시 삼문로 6 (대청동),35.19178397,128.7986752,Fldb-phinf.pstatic.net%2F20170526_283%2F,https://pcmap.place.naver.com/restaurant/21582430/review/visitor#,
291,의령소바,055-572-0885,경상남도 의령군 의령읍 서동리 491-30 의령소바본점,"경상남도 의령군 의령읍 의병로18길 3-5, 의령소바본점",35.31920285,128.2578809,2F20210724_257%2F1627115931347pB0Eu_JPEG,https://pcmap.place.naver.com/restaurant/1555694051/review/visitor#,
292,(주)초마김해점,,경상남도 김해시 외동 1264,"경상남도 김해시 김해대로 2232, 이마트 1층 (외동)",35.22913158,128.8692577,,0,
293,파라다이스 뷔페,042-673-8800,대전광역시 동구 가양동 451-2번지,대전광역시 동구 동서대로 1700 (가양동),36.349182,127.4353145,static.net%2F20170510_208%2F149440385742,https://pcmap.place.naver.com/restaurant/174115160/review/visitor#,
294,태화장,042-256-2407,대전광역시 동구 정동 36-32번지,대전광역시 동구 중앙로203번길 78 (정동),36.33384868,127.426471,2F20200106_156%2F1578264667175tjBcH_JPEG,https://pcmap.place.naver.com/restaurant/18176454/review/visitor#,
295,차오차오,042-626-9295,대전광역시 동구 홍도동 97번지,대전광역시 동구 한남로 11 (홍도동),36.35101059,127.423935,90913_116%2F1568368142431UzXtg_JPEG%2FOE,https://pcmap.place.naver.com/restaurant/1654751108/review/visitor#,
296,아향,031-462-1999,경기도 군포시 부곡동 1251-3번지,"경기도 군포시 군포첨단산업2로8번길 15, 1층 (부곡동)",37.3252708,126.9386927,2F20180720_228%2F1532062984129loarL_JPEG,https://pcmap.place.naver.com/restaurant/1323552296/review/visitor#,
297,(주)풍성한고을,,경상남도 창원시 의창구 동정동 332,경상남도 창원시 의창구 동정길 57-33 (동정동),35.26583103,128.6130393,,0,
298,경포장장어구이,055-336-6354,경상남도 김해시 불암동 229-34,경상남도 김해시 식만로348번길 31-1 (불암동),35.21789609,128.9189805,2F20210322_156%2F1616388819176FfMH4_JPEG,https://pcmap.place.naver.com/restaurant/11576010/review/visitor#,
299,비룡,055-945-1940,경상남도 거창군 거창읍 상림리 888-1번지,,inf,inf,tic.net%2F20170309_208%2F1489049265393JP,https://pcmap.place.naver.com/restaurant/36630759/review/visitor#,
300,룽타우객잔,262-1321,강원도 춘천시 석사동 802-2번지,강원도 춘천시 후석로 11-4  (석사동),37.85689565,127.7361787,tic.net%2F20151005_45%2F1444040273463pHv,https://pcmap.place.naver.com/restaurant/21204935/review/visitor#,
301,전성환의 옛날손짜장,263-5430,강원도 춘천시 석사동 796-5,강원도 춘천시 퇴계로 191 (석사동),37.8573972,127.7371688,,0,
302,친친,242-8397,강원도 춘천시 중앙로2가 15-1,강원도 춘천시 명동길 8 (중앙로2가),37.87963446,127.7245422,et%2F20220108_196%2F1641612768434yjSfR_J,https://pcmap.place.naver.com/restaurant/19873296/review/visitor#,
303,신촌식당,054-872-2050,경상북도 청송군 진보면 신촌리 38-4,경상북도 청송군 진보면 신촌약수길 18,inf,inf,,0,
304,뽕사부 구로점(중국식),02-838-5454,서울특별시 구로구 구로동 197-17 에이스테크노타워1차,"서울특별시 구로구 디지털로31길 38-9, 에이스테크노타워1차 1층 104호 (구로동)",37.4859532,126.8904444,,0,
305,혜혜패스트푸드(중국식),02-858-8666,서울특별시 구로구 가리봉동 89-158,"서울특별시 구로구 디지털로27길 123, 2층 (가리봉동)",37.48471516,126.884376,,0,
306,만다린그랜드머큐어,055-600-0530,경상남도 창원시 성산구 대원동 122 더시티세븐풀만호텔 5층,"경상남도 창원시 성산구 원이대로 332, 더시티세븐풀만호텔 5층 (대원동)",35.23933949,128.6521212,8tjZyGZpSPaplIa3NWUwplUyYytYyKD6ENzt28RO,https://pcmap.place.naver.com/restaurant/35928617/review/visitor#,
